[{"OBJECT_NAME":"WNISAT-1","OBJECT_ID":"2013-066H","EPOCH":"2026-03-05T10:39:39.935808","MEAN_MOTION":14.57852965,"ECCENTRICITY":0.0163279,"INCLINATION":97.7032,"RA_OF_ASC_NODE":221.0629,"ARG_OF_PERICENTER":198.248,"MEAN_ANOMALY":161.2819,"EPHEMERIS_TYPE":0,"CLASSIFICATION_TYPE":"U","NORAD_CAT_ID":39423,"ELEMENT_SET_NO":999,"REV_AT_EPOCH":65161,"BSTAR":0.00047761,"MEAN_MOTION_DOT":2.579e-5,"MEAN_MOTION_DDOT":0},{"OBJECT_NAME":"TRITON-1","OBJECT_ID":"2013-066M","EPOCH":"2026-03-05T18:04:12.829728","MEAN_MOTION":14.81171082,"ECCENTRICITY":0.0089874,"INCLINATION":97.8301,"RA_OF_ASC_NODE":336.9345,"ARG_OF_PERICENTER":210.6707,"MEAN_ANOMALY":148.9235,"EPHEMERIS_TYPE":0,"CLASSIFICATION_TYPE":"U","NORAD_CAT_ID":39427,"ELEMENT_SET_NO":999,"REV_AT_EPOCH":65877,"BSTAR":0.00044606,"MEAN_MOTION_DOT":3.663e-5,"MEAN_MOTION_DDOT":0},{"OBJECT_NAME":"GOMX-1","OBJECT_ID":"2013-066Q","EPOCH":"2026-03-05T14:26:54.241152","MEAN_MOTION":14.69080639,"ECCENTRICITY":0.0130465,"INCLINATION":97.6567,"RA_OF_ASC_NODE":271.5624,"ARG_OF_PERICENTER":50.526,"MEAN_ANOMALY":310.7401,"EPHEMERIS_TYPE":0,"CLASSIFICATION_TYPE":"U","NORAD_CAT_ID":39430,"ELEMENT_SET_NO":999,"REV_AT_EPOCH":65470,"BSTAR":0.00046961,"MEAN_MOTION_DOT":3.092e-5,"MEAN_MOTION_DDOT":0},{"OBJECT_NAME":"CUBEBUG-2 (LO-74)","OBJECT_ID":"2013-066AA","EPOCH":"2026-03-05T16:13:47.047008","MEAN_MOTION":14.92896457,"ECCENTRICITY":0.0059186,"INCLINATION":97.8819,"RA_OF_ASC_NODE":13.3431,"ARG_OF_PERICENTER":12.4274,"MEAN_ANOMALY":347.8388,"EPHEMERIS_TYPE":0,"CLASSIFICATION_TYPE":"U","NORAD_CAT_ID":39440,"ELEMENT_SET_NO":999,"REV_AT_EPOCH":66154,"BSTAR":0.00077184,"MEAN_MOTION_DOT":8.223e-5,"MEAN_MOTION_DDOT":0},{"OBJECT_NAME":"NEE-02 KRYSAOR","OBJECT_ID":"2013-066AB","EPOCH":"2026-03-05T12:58:02.003808","MEAN_MOTION":14.86129012,"ECCENTRICITY":0.0068047,"INCLINATION":97.882,"RA_OF_ASC_NODE":4.5785,"ARG_OF_PERICENTER":50.3945,"MEAN_ANOMALY":310.3251,"EPHEMERIS_TYPE":0,"CLASSIFICATION_TYPE":"U","NORAD_CAT_ID":39441,"ELEMENT_SET_NO":999,"REV_AT_EPOCH":66080,"BSTAR":0.0004605,"MEAN_MOTION_DOT":4.153e-5,"MEAN_MOTION_DDOT":0},{"OBJECT_NAME":"FUNCUBE-1 (AO-73)","OBJECT_ID":"2013-066AE","EPOCH":"2026-03-05T11:02:51.609984","MEAN_MOTION":15.07814743,"ECCENTRICITY":0.0036782,"INCLINATION":97.8183,"RA_OF_ASC_NODE":33.9264,"ARG_OF_PERICENTER":193.8533,"MEAN_ANOMALY":166.1688,"EPHEMERIS_TYPE":0,"CLASSIFICATION_TYPE":"U","NORAD_CAT_ID":39444,"ELEMENT_SET_NO":999,"REV_AT_EPOCH":66402,"BSTAR":0.00074915,"MEAN_MOTION_DOT":0.0001159,"MEAN_MOTION_DDOT":0},{"OBJECT_NAME":"UWE-3","OBJECT_ID":"2013-066AG","EPOCH":"2026-03-05T15:36:07.279200","MEAN_MOTION":14.96123135,"ECCENTRICITY":0.0048721,"INCLINATION":97.8595,"RA_OF_ASC_NODE":20.1665,"ARG_OF_PERICENTER":306.3334,"MEAN_ANOMALY":53.3394,"EPHEMERIS_TYPE":0,"CLASSIFICATION_TYPE":"U","NORAD_CAT_ID":39446,"ELEMENT_SET_NO":999,"REV_AT_EPOCH":66209,"BSTAR":0.00061115,"MEAN_MOTION_DOT":6.983e-5,"MEAN_MOTION_DDOT":0},{"OBJECT_NAME":"BRITE-CA1 (TORONTO)","OBJECT_ID":"2014-033L","EPOCH":"2026-03-04T07:53:05.506944","MEAN_MOTION":14.72445502,"ECCENTRICITY":0.007771,"INCLINATION":97.9558,"RA_OF_ASC_NODE":194.3075,"ARG_OF_PERICENTER":252.31,"MEAN_ANOMALY":106.9613,"EPHEMERIS_TYPE":0,"CLASSIFICATION_TYPE":"U","NORAD_CAT_ID":40020,"ELEMENT_SET_NO":999,"REV_AT_EPOCH":62678,"BSTAR":0.00029920168,"MEAN_MOTION_DOT":1.935e-5,"MEAN_MOTION_DDOT":0},{"OBJECT_NAME":"DUCHIFAT-1","OBJECT_ID":"2014-033M","EPOCH":"2026-03-05T16:42:17.437824","MEAN_MOTION":15.49239631,"ECCENTRICITY":0.0006471,"INCLINATION":98.063,"RA_OF_ASC_NODE":110.6544,"ARG_OF_PERICENTER":95.618,"MEAN_ANOMALY":264.5807,"EPHEMERIS_TYPE":0,"CLASSIFICATION_TYPE":"U","NORAD_CAT_ID":40021,"ELEMENT_SET_NO":999,"REV_AT_EPOCH":63965,"BSTAR":0.0011299,"MEAN_MOTION_DOT":0.00061998,"MEAN_MOTION_DDOT":0},{"OBJECT_NAME":"NANOSATC-BR1","OBJECT_ID":"2014-033Q","EPOCH":"2026-03-05T14:17:03.625440","MEAN_MOTION":15.27934291,"ECCENTRICITY":0.0004242,"INCLINATION":98.0839,"RA_OF_ASC_NODE":88.0214,"ARG_OF_PERICENTER":159.5575,"MEAN_ANOMALY":200.5833,"EPHEMERIS_TYPE":0,"CLASSIFICATION_TYPE":"U","NORAD_CAT_ID":40024,"ELEMENT_SET_NO":999,"REV_AT_EPOCH":63814,"BSTAR":0.00079058,"MEAN_MOTION_DOT":0.00021514,"MEAN_MOTION_DDOT":0},{"OBJECT_NAME":"QB50P1","OBJECT_ID":"2014-033R","EPOCH":"2026-03-05T13:16:20.133984","MEAN_MOTION":15.16411477,"ECCENTRICITY":0.000787,"INCLINATION":98.1002,"RA_OF_ASC_NODE":68.5561,"ARG_OF_PERICENTER":210.4166,"MEAN_ANOMALY":149.661,"EPHEMERIS_TYPE":0,"CLASSIFICATION_TYPE":"U","NORAD_CAT_ID":40025,"ELEMENT_SET_NO":999,"REV_AT_EPOCH":63731,"BSTAR":0.00067179,"MEAN_MOTION_DOT":0.00013002,"MEAN_MOTION_DDOT":0},{"OBJECT_NAME":"QB50P2","OBJECT_ID":"2014-033Y","EPOCH":"2026-03-05T13:33:06.177312","MEAN_MOTION":15.13575442,"ECCENTRICITY":0.0008237,"INCLINATION":98.0733,"RA_OF_ASC_NODE":55.1328,"ARG_OF_PERICENTER":154.2543,"MEAN_ANOMALY":205.9099,"EPHEMERIS_TYPE":0,"CLASSIFICATION_TYPE":"U","NORAD_CAT_ID":40032,"ELEMENT_SET_NO":999,"REV_AT_EPOCH":63698,"BSTAR":0.00061092,"MEAN_MOTION_DOT":0.00010904,"MEAN_MOTION_DDOT":0},{"OBJECT_NAME":"PERSEUS-M2","OBJECT_ID":"2014-033AD","EPOCH":"2026-03-05T19:29:42.092736","MEAN_MOTION":14.95141608,"ECCENTRICITY":0.0010157,"INCLINATION":97.9875,"RA_OF_ASC_NODE":13.3443,"ARG_OF_PERICENTER":286.1755,"MEAN_ANOMALY":73.8347,"EPHEMERIS_TYPE":0,"CLASSIFICATION_TYPE":"U","NORAD_CAT_ID":40037,"ELEMENT_SET_NO":999,"REV_AT_EPOCH":63533,"BSTAR":0.00036992,"MEAN_MOTION_DOT":4.003e-5,"MEAN_MOTION_DDOT":0},{"OBJECT_NAME":"PERSEUS-M1","OBJECT_ID":"2014-033AF","EPOCH":"2026-03-05T19:01:28.128288","MEAN_MOTION":14.95231363,"ECCENTRICITY":0.0009913,"INCLINATION":97.9558,"RA_OF_ASC_NODE":7.3186,"ARG_OF_PERICENTER":283.3525,"MEAN_ANOMALY":76.659,"EPHEMERIS_TYPE":0,"CLASSIFICATION_TYPE":"U","NORAD_CAT_ID":40039,"ELEMENT_SET_NO":999,"REV_AT_EPOCH":63518,"BSTAR":0.00036427,"MEAN_MOTION_DOT":3.95e-5,"MEAN_MOTION_DDOT":0},{"OBJECT_NAME":"POLYITAN-1","OBJECT_ID":"2014-033AJ","EPOCH":"2026-03-05T14:49:54.637536","MEAN_MOTION":15.29339075,"ECCENTRICITY":0.0009087,"INCLINATION":98.1048,"RA_OF_ASC_NODE":81.3381,"ARG_OF_PERICENTER":139.7244,"MEAN_ANOMALY":220.4669,"EPHEMERIS_TYPE":0,"CLASSIFICATION_TYPE":"U","NORAD_CAT_ID":40042,"ELEMENT_SET_NO":999,"REV_AT_EPOCH":63774,"BSTAR":0.00086268,"MEAN_MOTION_DOT":0.00024548,"MEAN_MOTION_DDOT":0},{"OBJECT_NAME":"TIGRISAT","OBJECT_ID":"2014-033AK","EPOCH":"2026-03-05T09:52:36.449472","MEAN_MOTION":14.84701104,"ECCENTRICITY":0.0050658,"INCLINATION":97.7663,"RA_OF_ASC_NODE":216.9192,"ARG_OF_PERICENTER":56.1746,"MEAN_ANOMALY":304.4276,"EPHEMERIS_TYPE":0,"CLASSIFICATION_TYPE":"U","NORAD_CAT_ID":40043,"ELEMENT_SET_NO":999,"REV_AT_EPOCH":63022,"BSTAR":0.0004017,"MEAN_MOTION_DOT":3.426e-5,"MEAN_MOTION_DDOT":0},{"OBJECT_NAME":"AEROCUBE 6A","OBJECT_ID":"2014-033AM","EPOCH":"2026-03-05T12:26:58.349760","MEAN_MOTION":14.9677036,"ECCENTRICITY":0.0039146,"INCLINATION":97.7115,"RA_OF_ASC_NODE":232.7181,"ARG_OF_PERICENTER":3.5894,"MEAN_ANOMALY":356.56,"EPHEMERIS_TYPE":0,"CLASSIFICATION_TYPE":"U","NORAD_CAT_ID":40045,"ELEMENT_SET_NO":999,"REV_AT_EPOCH":63110,"BSTAR":0.00077598,"MEAN_MOTION_DOT":8.962e-5,"MEAN_MOTION_DDOT":0}]
