WNISAT-1                
1 39423U 13066H   26064.44421222  .00002579  00000+0  47761-3 0  9996
2 39423  97.7032 221.0629 0163279 198.2480 161.2819 14.57852965651612
TRITON-1                
1 39427U 13066M   26064.75292627  .00003663  00000+0  44606-3 0  9999
2 39427  97.8301 336.9345 0089874 210.6707 148.9235 14.81171082658775
GOMX-1                  
1 39430U 13066Q   26064.60201668  .00003092  00000+0  46961-3 0  9994
2 39430  97.6567 271.5624 0130465  50.5260 310.7401 14.69080639654709
CUBEBUG-2 (LO-74)       
1 39440U 13066AA  26064.67623897  .00008223  00000+0  77184-3 0  9996
2 39440  97.8819  13.3431 0059186  12.4274 347.8388 14.92896457661546
NEE-02 KRYSAOR          
1 39441U 13066AB  26064.54030097  .00004153  00000+0  46050-3 0  9993
2 39441  97.8820   4.5785 0068047  50.3945 310.3251 14.86129012660806
FUNCUBE-1 (AO-73)       
1 39444U 13066AE  26064.46031956  .00011590  00000+0  74915-3 0  9996
2 39444  97.8183  33.9264 0036782 193.8533 166.1688 15.07814743664021
UWE-3                   
1 39446U 13066AG  26064.65008425  .00006983  00000+0  61115-3 0  9992
2 39446  97.8595  20.1665 0048721 306.3334  53.3394 14.96123135662090
BRITE-CA1 (TORONTO)     
1 40020U 14033L   26063.32853596  .00001935  00000+0  29920-3 0  9997
2 40020  97.9558 194.3075 0077710 252.3100 106.9613 14.72445502626784
DUCHIFAT-1              
1 40021U 14033M   26064.69603516  .00061998  00000+0  11299-2 0  9998
2 40021  98.0630 110.6544 0006471  95.6180 264.5807 15.49239631639657
NANOSATC-BR1            
1 40024U 14033Q   26064.59518085  .00021514  00000+0  79058-3 0  9994
2 40024  98.0839  88.0214 0004242 159.5575 200.5833 15.27934291638147
QB50P1                  
1 40025U 14033R   26064.55301081  .00013002  00000+0  67179-3 0  9991
2 40025  98.1002  68.5561 0007870 210.4166 149.6610 15.16411477637310
QB50P2                  
1 40032U 14033Y   26064.56465483  .00010904  00000+0  61092-3 0  9993
2 40032  98.0733  55.1328 0008237 154.2543 205.9099 15.13575442636982
PERSEUS-M2              
1 40037U 14033AD  26064.81229274  .00004003  00000+0  36992-3 0  9996
2 40037  97.9875  13.3443 0010157 286.1755  73.8347 14.95141608635338
PERSEUS-M1              
1 40039U 14033AF  26064.79268667  .00003950  00000+0  36427-3 0  9997
2 40039  97.9558   7.3186 0009913 283.3525  76.6590 14.95231363635189
POLYITAN-1              
1 40042U 14033AJ  26064.61799349  .00024548  00000+0  86268-3 0  9992
2 40042  98.1048  81.3381 0009087 139.7244 220.4669 15.29339075637740
TIGRISAT                
1 40043U 14033AK  26064.41153298  .00003426  00000+0  40170-3 0  9992
2 40043  97.7663 216.9192 0050658  56.1746 304.4276 14.84701104630223
AEROCUBE 6A             
1 40045U 14033AM  26064.51873090  .00008962  00000+0  77598-3 0  9998
2 40045  97.7115 232.7181 0039146   3.5894 356.5600 14.96770360631100
